PROMETHEUS 2-3          
1 41855U 16067H   25140.57073704  .00041011  00000+0  82047-3 0  9998
2 41855  98.0741 350.7818 0004150 341.0554  19.0538 15.46660294467318
CORVUS BC2              
1 42846U 17042X   25140.46907814  .00002873  00000+0  21836-3 0  9991
2 42846  97.3747 314.0292 0014714  24.0855 336.1055 15.02816658428015
CORVUS BC1              
1 42847U 17042Y   25140.78965267  .00002302  00000+0  17490-3 0  9991
2 42847  97.3759 314.8528 0012649 357.4611   2.6549 15.03051125428088
MIRATA                  
1 43015U 17073C   25140.45018616  .00048704  00000+0  85196-3 0  9998
2 43015  97.5416  34.4285 0087034 157.0811 203.4359 15.46259471407694
MAKERSAT 0              
1 43016U 17073D   25140.59830852  .00012035  00000+0  49142-3 0  9997
2 43016  97.5221  18.9836 0147524 208.8438 150.4582 15.15038908406716
SIRION PATHFINDER-2     
1 43759U 18099B   25140.69863896  .00005252  00000+0  32954-3 0  9991
2 43759  97.4785 194.1030 0009176 205.1392 154.9392 15.09692601353310
CORVUS BC4              
1 43767U 18099K   25140.64418823  .00003319  00000+0  21840-3 0  9995
2 43767  97.4601 189.9616 0007292 271.2158  88.8235 15.08206300353158
MOVE-II                 
1 43780U 18099Y   25140.73354447  .00172303  00000+0  15192-2 0  9993
2 43780  97.4657 214.9628 0006551 201.6137 158.4848 15.68156569354687
SPACEBEE-7              
1 43816U 18099BL  25140.72638495  .00027845  00000+0  81587-3 0  9992
2 43816  97.4961 210.6009 0007413 173.2934 186.8410 15.35152052353752
SHIELDS 1               
1 43850U 18104B   25140.75144786  .00030452  00000+0  37711-3 0  9993
2 43850  85.0157  50.4980 0005189 191.8904 168.2237 15.59907056358360
SONATE                  
1 44400U 19038Q   25140.62063543  .00198420  00000+0  83495-3 0  9999
2 44400  97.6925 165.0418 0001658 266.9015  93.2064 15.84969964326406
DUCHIFAT-3              
1 44854U 19089C   25140.66494127  .00041215  00000+0  85134-3 0  9999
2 44854  36.9429 121.6583 0002493 201.8430 158.2220 15.44882082299936
M2 PATHFINDER           
1 45727U 20037E   25140.48851135  .00002384  00000+0  18580-3 0  9995
2 45727  97.8166 322.9962 0014447  49.0199 311.2273 15.02104427266491
NETSAT-4                
1 46504U 20068U   25140.79390954  .00013537  00000+0  46975-3 0  9995
2 46504  97.8447 117.5142 0005007 273.2163  86.8503 15.29911773255521
NETSAT-3                
1 46505U 20068V   25140.37451920  .00010311  00000+0  37509-3 0  9991
2 46505  97.8443 116.0609 0004911 291.7033  68.3682 15.28445302255425
NETSAT-1                
1 46506U 20068W   25140.49631337  .00007954  00000+0  33331-3 0  9995
2 46506  97.8470 114.1602 0004950 312.1276  47.9538 15.23807387255308
NETSAT-2                
1 46507U 20068X   25140.64849530  .00012325  00000+0  43338-3 0  9995
2 46507  97.8446 116.8600 0003839 318.3179  41.7767 15.29510296255441
WILDTRACKCUBE-SIMBA     
1 47941U 21022K   25140.75508152  .00028414  00000+0  61695-3 0  9995
2 47941  97.4242  44.8571 0011087  37.6764 322.5258 15.44269691230137
GRBALPHA                
1 47959U 21022AD  25140.84728458  .00413894  65760-4  14199-2 0  9992
2 47959  97.4113  53.8517 0005133 108.9060 251.2769 15.89626706229551
LEDSAT                  
1 49069U 21073D   25140.73469140  .00059996  00000+0  79148-3 0  9996
2 49069  97.3889 221.4828 0011727 151.2538 208.9367 15.58130765208347
GREENCUBE (IO-117)      
1 53109U 22080E   25140.20243787 -.00000003  00000+0  00000+0 0  9997
2 53109  70.1363  74.9051 0008699  13.3218 346.7670  6.42584137 66810
SITRO-AIS 5 (KATYS)     
1 57176U 23091L   25140.80049240  .00008188  00000+0  38873-3 0  9996
2 57176  97.5594 197.7230 0014992  45.3588 314.8866 15.19411464104573
SITRO-AIS 6 (CHIRKIN)   
1 57192U 23091AC  25140.78668666  .00008478  00000+0  40342-3 0  9996
2 57192  97.5592 197.7227 0014906  45.0248 315.2192 15.19322841104577
SITRO-AIS 8 (ANOKHIN)   
1 57193U 23091AD  25140.77811685  .00009711  00000+0  44371-3 0  9994
2 57193  97.5589 198.1773 0014293  45.1735 315.0659 15.20692202104609
SITRO-AIS 7 (FARTUSHNIY)
1 57194U 23091AE  25140.74121544  .00008452  00000+0  40329-3 0  9990
2 57194  97.5593 197.6191 0014814  46.0221 314.2232 15.19227257104567
SITRO-AIS 10 (BURDAEV)  
1 57199U 23091AK  25140.73671057  .00011216  00000+0  46591-3 0  9992
2 57199  97.5601 200.3539 0009662  33.4638 326.7208 15.23950916104737
SITRO-AIS 9 (SHCHUKIN)  
1 57201U 23091AM  25140.75205506  .00010635  00000+0  44428-3 0  9991
2 57201  97.5598 200.2899 0009682  33.7538 326.4314 15.23772628104735
SITRO-AIS 12 (SMIRENNIY)
1 57204U 23091AQ  25140.73676557  .00010027  00000+0  41660-3 0  9990
2 57204  97.5607 200.5478 0009377  27.6688 332.5046 15.23976572104749
SITRO-AIS 11 (SHEFFER)  
1 57208U 23091AU  25140.75794534  .00011357  00000+0  46871-3 0  9998
2 57208  97.5605 200.6523 0009211  27.9270 332.2460 15.24170218104752
VERONIKA                
1 58261U 23174F   25140.79802556  .00113324  00000+0  11314-2 0  9998
2 58261  97.4125 225.8658 0005563 146.2448 213.9167 15.65248037 85582
ROBUSTA-1E (ENSO)       
1 58470U 23185J   25140.87881507  .00050645  00000+0  78711-3 0  9995
2 58470  97.3739 215.3975 0009020 151.6116 208.5631 15.53746125 81977
SITRO-AIS 25            
1 59066U 24039R   25140.76728715  .00003125  00000+0  26929-3 0  9990
2 59066  95.3756 326.5364 0154228 255.6513 102.7546 14.88940434 66249
SITRO-AIS 26            
1 59067U 24039S   25140.79121864  .00003614  00000+0  31194-3 0  9999
2 59067  95.3757 326.5152 0154430 255.7869 102.6158 14.88792138 66240
SITRO-AIS 27            
1 59068U 24039T   25140.79051878  .00003653  00000+0  31317-3 0  9997
2 59068  95.3758 326.6318 0153709 255.1602 103.2553 14.89114666 66256
SITRO-AIS 28            
1 59071U 24039U   25140.77813213  .00003540  00000+0  30342-3 0  9990
2 59071  95.3759 326.6486 0153560 255.1163 103.3012 14.89155683 66259
GRBBETA                 
1 60237U 24128C   25140.43827937  .00003700  00000+0  28592-3 0  9998
2 60237  61.9901 149.7748 0050414  52.8085 307.7592 15.02437734 47176
OOV-CUBE (TUBSAT-30)    
1 60240U 24128F   25140.73362821  .00002264  00000+0  19240-3 0  9995
2 60240  61.9942 151.2914 0050091  49.7655 310.7800 15.00132656 47187
ROBUSTA-3A (MEDITERRAN*)
1 60243U 24128J   25140.43707799  .00005342  00000+0  38628-3 0  9993
2 60243  61.9870 149.1197 0048946  46.3031 314.2099 15.04336762 47194
LASARSAT                
1 62391U 24247Q   25140.73726487  .00014238  00000+0  56403-3 0  9994
2 62391  44.9869 267.9764 0008757 284.0595  75.9313 15.25350458 23038
CROCUBE                 
1 62394U 24247T   25140.73368433  .00014967  00000+0  58917-3 0  9991
2 62394  44.9842 267.9404 0009258 284.1608  75.8245 15.25522009 23032
